H1 CPF 01  gfz 2021 01 29 01  5291 terrasarx 
H2 0702601  6201 31698    2021 01 29 00 59 42 2021 02 03 00 00 42   120 1 1  0 0 0
H9
10 0 59247  71982.000000  0    1508895.342  -1828717.183   6457039.871
10 0 59247  72102.000000  0     714703.075  -1426005.008   6690491.705
10 0 59247  72222.000000  0     -84569.559   -984466.366   6806374.389
10 0 59247  72342.000000  0    -874365.759   -511846.067   6802664.939
10 0 59247  72462.000000  0   -1640437.821    -16680.502   6679426.923
10 0 59247  72582.000000  0   -2369102.989    491856.136   6438809.543
10 0 59247  72702.000000  0   -3047487.370   1004120.974   6085012.934
10 0 59247  72822.000000  0   -3663754.578   1510184.156   5624219.938
10 0 59247  72942.000000  0   -4207316.076   2000020.540   5064494.769
10 0 59247  73062.000000  0   -4669019.551   2463708.622   4415648.312
10 0 59247  73182.000000  0   -5041310.035   2891632.519   3689069.992
10 0 59247  73302.000000  0   -5318360.205   3274682.099   2897530.428
10 0 59247  73422.000000  0   -5496168.129   3604447.545   2054957.794
10 0 59247  73542.000000  0   -5572619.893   3873404.630   1176190.258
10 0 59247  73662.000000  0   -5547513.797   4075083.948    276707.813
10 0 59247  73782.000000  0   -5422544.996   4204220.106   -627647.986
10 0 59247  73902.000000  0   -5201252.877   4256877.838  -1520961.718
10 0 59247  74022.000000  0   -4888930.661   4230551.588  -2387534.185
10 0 59247  74142.000000  0   -4492498.547   4124234.053  -3212166.283
10 0 59247  74262.000000  0   -4020346.222   3938453.888  -3980429.715
10 0 59247  74382.000000  0   -3482149.012   3675282.123  -4678919.113
10 0 59247  74502.000000  0   -2888663.107   3338308.132  -5295481.307
10 0 59247  74622.000000  0   -2251506.868   2932586.651  -5819418.458
10 0 59247  74742.000000  0   -1582930.610   2464557.496  -6241665.048
10 0 59247  74862.000000  0    -895579.523   1941938.207  -6554933.423
10 0 59247  74982.000000  0    -202256.580   1373594.503  -6753827.633
10 0 59247  75102.000000  0     484311.477    769389.802  -6834926.450
10 0 59247  75222.000000  0    1151701.658    140017.063  -6796836.827
10 0 59247  75342.000000  0    1788015.432   -503186.948  -6640215.442
10 0 59247  75462.000000  0    2382085.401  -1148440.862  -6367757.265
10 0 59247  75582.000000  0    2923667.765  -1783728.954  -5984154.588
10 0 59247  75702.000000  0    3403617.415  -2397019.234  -5496024.786
10 0 59247  75822.000000  0    3814044.968  -2976489.056  -4911808.671
10 0 59247  75942.000000  0    4148450.721  -3510753.574  -4241634.095
10 0 59247  76062.000000  0    4401831.633  -3989089.869  -3497150.176
10 0 59247  76182.000000  0    4570762.508  -4401654.960  -2691334.273
10 0 59247  76302.000000  0    4653447.826  -4739692.556  -1838270.990
10 0 59247  76422.000000  0    4649741.871  -4995723.576   -952907.583
10 0 59247  76542.000000  0    4561134.991  -5163714.768    -50788.928
10 0 59247  76662.000000  0    4390706.503  -5239219.782    852221.272
10 0 59247  76782.000000  0    4143045.823  -5219490.087   1740227.665
10 0 59247  76902.000000  0    3824141.514  -5103550.660   2597592.603
10 0 59247  77022.000000  0    3441242.773  -4892240.613   3409218.974
10 0 59247  77142.000000  0    3002696.889  -4588216.884   4160823.038
10 0 59247  77262.000000  0    2517766.724  -4195920.485   4839189.784
10 0 59247  77382.000000  0    1996433.293  -3721507.208   5432406.498
10 0 59247  77502.000000  0    1449187.965  -3172745.021   5930070.581
10 0 59247  77622.000000  0     886818.636  -2558879.614   6323467.818
10 0 59247  77742.000000  0     320195.463  -1890473.285   6605718.483
10 0 59247  77862.000000  0    -239939.532  -1179219.767   6771890.824
10 0 59247  77982.000000  0    -783174.928   -437737.788   6819082.816
10 0 59247  78102.000000  0   -1299622.335    320653.770   6746469.558
10 0 59247  78222.000000  0   -1780095.818   1082174.656   6555316.617
10 0 59247  78342.000000  0   -2216274.980   1832832.711   6248959.292
10 0 59247  78462.000000  0   -2600849.782   2558680.159   5832748.140
10 0 59247  78582.000000  0   -2927644.384   3246073.488   5313961.431
10 0 59247  78702.000000  0   -3191719.215   3881932.246   4701684.606
10 0 59247  78822.000000  0   -3389448.632   4453992.584   4006656.973
10 0 59247  78942.000000  0   -3518572.055   4951050.188   3241087.325
10 0 59247  79062.000000  0   -3578217.172   5363187.106   2418440.453
10 0 59247  79182.000000  0   -3568894.517   5681975.952   1553197.991
10 0 59247  79302.000000  0   -3492463.286   5900656.448    660599.560
10 0 59247  79422.000000  0   -3352070.060   6014282.694   -243631.627
10 0 59247  79542.000000  0   -3152060.428   6019834.159  -1143575.492
10 0 59247  79662.000000  0   -2897866.219   5916286.847  -2023406.079
10 0 59247  79782.000000  0   -2595868.916   5704641.733  -2867679.364
10 0 59247  79902.000000  0   -2253246.074   5387912.934  -3661607.789
10 0 59247  80022.000000  0   -1877805.861   4971077.489  -4391321.174
10 0 59247  80142.000000  0   -1477812.106   4460985.537  -5044106.198
10 0 59247  80262.000000  0   -1061805.986   3866237.851  -5608620.954
10 0 59247  80382.000000  0    -638426.639   3197032.369  -6075084.327
10 0 59247  80502.000000  0    -216234.437   2464981.420  -6435435.651
10 0 59247  80622.000000  0     196458.422   1682905.751  -6683461.635
10 0 59247  80742.000000  0     591746.618    864610.135  -6814893.524
10 0 59247  80862.000000  0     962279.220     24642.409  -6827473.026
10 0 59247  80982.000000  0    1301392.847   -821960.672  -6720986.478
10 0 59247  81102.000000  0    1603228.010  -1659936.304  -6497266.463
10 0 59247  81222.000000  0    1862828.179  -2474063.097  -6160163.730
10 0 59247  81342.000000  0    2076220.852  -3249431.394  -5715489.114
10 0 59247  81462.000000  0    2240478.868  -3971714.997  -5170924.865
10 0 59247  81582.000000  0    2353760.740  -4627437.544  -4535901.354
10 0 59247  81702.000000  0    2415328.847  -5204226.155  -3821444.124
10 0 59247  81822.000000  0    2425545.295  -5691051.630  -3039992.801
10 0 59247  81942.000000  0    2385845.331  -6078449.004  -2205191.412
10 0 59247  82062.000000  0    2298688.278  -6358712.942  -1331653.720
10 0 59247  82182.000000  0    2167486.168  -6526062.183   -434706.296
10 0 59247  82302.000000  0    1996512.615  -6576765.934    469886.537
10 0 59247  82422.000000  0    1790792.023  -6509230.489   1366205.796
10 0 59247  82542.000000  0    1555974.742  -6324045.098   2238467.553
10 0 59247  82662.000000  0    1298197.745  -6023980.322   3071310.744
10 0 59247  82782.000000  0    1023937.113  -5613943.633   3850074.477
10 0 59247  82902.000000  0     739855.493  -5100892.415   4561060.887
10 0 59247  83022.000000  0     452648.202  -4493708.123   5191778.230
10 0 59247  83142.000000  0     168891.330  -3803032.860   5731160.511
10 0 59247  83262.000000  0    -105102.874  -3041072.454   6169758.562
10 0 59247  83382.000000  0    -363421.620  -2221372.111   6499899.018
10 0 59247  83502.000000  0    -600675.297  -1358571.491   6715811.366
10 0 59247  83622.000000  0    -812106.877   -468141.436   6813723.934
10 0 59247  83742.000000  0    -993685.609    433894.728   6791926.644
10 0 59247  83862.000000  0   -1142183.253   1331249.612   6650798.866
10 0 59247  83982.000000  0   -1255231.051   2207665.139   6392802.996
10 0 59247  84102.000000  0   -1331357.446   3047206.647   6022444.363
10 0 59247  84222.000000  0   -1370006.227   3834553.668   5546197.260
10 0 59247  84342.000000  0   -1371533.684   4555282.317   4972397.690
10 0 59247  84462.000000  0   -1337185.895   5196135.629   4311104.095
10 0 59247  84582.000000  0   -1269055.891   5745275.577   3573924.978
10 0 59247  84702.000000  0   -1170021.794   6192510.060   2773818.281
10 0 59247  84822.000000  0   -1043668.818   6529493.519   1924863.928
10 0 59247  84942.000000  0    -894192.058   6749892.026   1042011.297
10 0 59247  85062.000000  0    -726285.825   6849508.545    140810.078
10 0 59247  85182.000000  0    -545021.665   6826367.498   -762870.976
10 0 59247  85302.000000  0    -355718.009   6680754.467  -1653134.058
10 0 59247  85422.000000  0    -163805.458   6415206.981  -2514341.657
10 0 59247  85542.000000  0      25308.175   6034460.668  -3331396.356
10 0 59247  85662.000000  0     206370.529   5545354.276  -4090008.019
10 0 59247  85782.000000  0     374412.463   4956694.823  -4776943.452
10 0 59247  85902.000000  0     524867.423   4279086.664  -5380253.222
10 0 59247  86022.000000  0     653679.722   3524729.561  -5889472.312
10 0 59247  86142.000000  0     757398.839   2707190.086  -6295792.008
10 0 59247  86262.000000  0     833258.594   1841152.261  -6592200.671
10 0 59247  86382.000000  0     879240.058    942153.315  -6773593.264
99
